GSAT-8                  
1 37605U 11022A   21156.51166591  .00000088  00000-0  00000-0 0  9992
2 37605   0.0643 109.1303 0002668 194.2121 190.1016  1.00273949 34791
ST-2                    
1 37606U 11022B   21156.53175809 -.00000209  00000-0  00000-0 0  9993
2 37606   0.0188 311.5489 0001200 163.7307  58.3317  1.00273481 36857
CHINASAT 10 (ZX 10)     
1 37677U 11026A   21156.61924530 -.00000348  00000-0  00000-0 0  9991
2 37677   0.0466 255.3948 0003599 249.3837  82.8913  1.00268506 36532
TIANLIAN 1-02           
1 37737U 11032A   21156.64347375 -.00000012  00000-0  00000-0 0  9992
2 37737   2.2904  74.3519 0015764  87.5042 135.1065  1.00271174 36298
GSAT-12                 
1 37746U 11034A   21156.51018291  .00000128  00000-0  00000-0 0  9999
2 37746   0.4426  97.0121 0011480 349.1872  39.4749  1.00271216 25073
SES-3                   
1 37748U 11035A   21156.50537439 -.00000098  00000-0  00000-0 0  9998
2 37748   0.0204  17.8403 0002794  48.9254 266.3092  1.00272236 36172
KAZSAT-2                
1 37749U 11035B   21155.87190670 -.00000197  00000-0  00000-0 0  9990
2 37749   0.0253 232.2039 0001496 277.2846 144.4194  1.00271246 34950
BEIDOU 9                
1 37763U 11038A   21155.78701800 -.00000007  00000-0  00000-0 0  9992
2 37763  54.4618 182.1529 0083372 226.5622 223.6225  1.00267663 36217
ASTRA 1N                
1 37775U 11041A   21156.50451257  .00000123  00000-0  00000-0 0  9996
2 37775   0.0430  17.0656 0005323  41.1553  36.7342  1.00270495 26107
BSAT-3C (JCSAT-110R)    
1 37776U 11041B   21156.56160576 -.00000347  00000-0  00000-0 0  9993
2 37776   0.0207  64.4417 0000255 202.0786 299.7950  1.00268258 32057
PAKSAT-1R               
1 37779U 11042A   21156.50826372  .00000157  00000-0  00000-0 0  9992
2 37779   0.0248  86.7454 0007065 321.9730  66.4044  1.00270527 36058
CHINASAT 1A (ZX 1A)     
1 37804U 11047A   21156.52653486 -.00000334  00000-0  00000+0 0  9999
2 37804   0.0379 258.7871 0001265 124.6750 190.1097  1.00274427 35642
SES-2                   
1 37809U 11049A   21156.48331424 -.00000192  00000-0  00000-0 0  9999
2 37809   0.0224  49.4415 0002684  26.2531 265.4124  1.00272967 35537
ARABSAT-5C              
1 37810U 11049B   21156.50468705  .00000126  00000-0  00000-0 0  9993
2 37810   0.0569   5.1838 0004737 116.0439 334.5922  1.00270285 35631
EUTELSAT 7 WEST A       
1 37816U 11051A   21156.35567742 -.00000057  00000-0  00000-0 0  9990
2 37816   0.0632  14.0983 0004647 117.4157 243.1929  1.00273657 35469
QUETZSAT 1              
1 37826U 11054A   21156.48532066 -.00000238  00000-0  00000-0 0  9990
2 37826   0.0303  57.2416 0002653  28.5665 266.0354  1.00272671 31463
INTELSAT 18 (IS-18)     
1 37834U 11056A   21156.60859700  .00000056  00000-0  00000-0 0  9999
2 37834   0.0270  40.1750 0002385  50.1577 203.0037  1.00272053 35380
EUTELSAT 16A            
1 37836U 11057A   21156.50381469  .00000107  00000-0  00000-0 0  9990
2 37836   0.0656   1.9614 0005494  79.1695  10.3920  1.00269678 27559
VIASAT-1                
1 37843U 11059A   21155.90348611 -.00000022  00000-0  00000-0 0  9992
2 37843   0.0181 327.1003 0002676 121.0176  15.5790  1.00270334 28896
ASIASAT 7               
1 37933U 11069A   21156.30637889 -.00000331  00000-0  00000+0 0  9998
2 37933   0.0034 275.1808 0001458 132.3258  62.2099  1.00269695 35034
BEIDOU 10               
1 37948U 11073A   21156.34910609 -.00000170  00000-0  00000-0 0  9999
2 37948  50.9861 293.7593 0071969 213.6542 325.4539  1.00256384 34978
LUCH 5A                 
1 37951U 11074B   21156.60813412 -.00000042  00000-0  00000-0 0  9995
2 37951   4.0918 105.5958 0006270 332.4843 202.0179  1.00273709 34764
NIGCOMSAT 1R            
1 38014U 11077A   21156.50913608  .00000148  00000-0  00000-0 0  9992
2 38014   0.0141 238.0703 0001953 213.7641  28.0854  1.00274341 34533
FENGYUN 2F              
1 38049U 12002A   21156.52300657 -.00000353  00000-0  00000-0 0  9994
2 38049   2.8876  82.1161 0003967  53.1329  59.0932  1.00260685 34467
WGS F4 (USA 233)        
1 38070U 12003A   21156.37478209 -.00000212  00000-0  00000-0 0  9995
2 38070   0.0181 312.0770 0000261  92.5285  72.7367  1.00269349 25722
SES-4                   
1 38087U 12007A   21156.35271140 -.00000165  00000-0  00000-0 0  9997
2 38087   0.0118 354.4220 0002712 102.7776 261.7689  1.00272245 33817
BEIDOU 11               
1 38091U 12008A   21155.96373628  .00000058  00000-0  00000-0 0  9993
2 38091   1.5278  67.4880 0008769 328.3714 263.4145  1.00270751 34046
MUOS-1                  
1 38093U 12009A   21156.50647028 -.00000125  00000-0  00000-0 0  9991
2 38093   2.6175  20.3728 0057463   3.0974 313.0309  1.00272146 34016
INTELSAT 22 (IS-22)     
1 38098U 12011A   21156.51506811 -.00000055  00000-0  00000-0 0  9996
2 38098   0.0395 294.8980 0002728 148.3302  68.4361  1.00270041 33398
APSTAR 7                
1 38107U 12013A   21156.51594047 -.00000098  00000-0  00000-0 0  9994
2 38107   0.0166  10.5761 0002707  74.4174  71.3945  1.00271768 33385
YAHSAT 1B               
1 38245U 12016A   21156.07951804  .00000128  00000-0  00000-0 0  9992
2 38245   0.0157   0.7808 0002584  80.1507 249.0197  1.00271540 27168
AEHF-2 (USA 235)        
1 38254U 12019A   21156.49123458 -.00000272  00000-0  00000-0 0  9998
2 38254   2.6045  56.2555 0008430  37.0996 270.0752  1.00274472 32429
JCSAT-13                
1 38331U 12023A   21156.55605179 -.00000353  00000-0  00000-0 0  9991
2 38331   0.0399 125.7880 0002733 326.3481 126.2318  1.00272160 33103
VINASAT-2               
1 38332U 12023B   21156.55605179 -.00000325  00000-0  00000-0 0  9991
2 38332   0.0094 327.1064 0002530 123.4772 135.6327  1.00273204 28234
NIMIQ 6                 
1 38342U 12026A   21156.48252910 -.00000170  00000-0  00000-0 0  9996
2 38342   0.0431  94.2887 0002497 336.5062 265.9275  1.00271962 31991
CHINASAT 2A (ZX 2A)     
1 38352U 12028A   21156.57132917 -.00000290  00000-0  00000-0 0  9996
2 38352   0.0315 257.9808 0002808 161.7814 138.3501  1.00274191 32952
INTELSAT 19 (IS-19)     
1 38356U 12030A   21156.59508399 -.00000053  00000-0  00000-0 0  9993
2 38356   0.0165 319.0885 0002945 122.3217 193.0519  1.00272300 32010
ECHOSTAR 17             
1 38551U 12035A   21155.97685153 -.00000073  00000-0  00000-0 0  9992
2 38551   0.0191 322.2727 0002052 107.8082  68.1042  1.00269359 32635
METEOSAT-10 (MSG-3)     
1 38552U 12035B   21156.22072667  .00000062  00000-0  00000+0 0  9998
2 38552   1.2084   9.8382 0001012  27.1225 305.6000  1.00274995 32795
SES-5                   
1 38652U 12036A   21156.21451944  .00000036  00000-0  00000-0 0  9990
2 38652   0.0413 300.3046 0001965 134.9762 260.7722  1.00272173 26066
TIANLIAN 1-03           
1 38730U 12040A   21155.49989039  .00000125  00000-0  00000-0 0  9991
2 38730   1.0762  96.5134 0006803 323.8620  33.1826  1.00276015 32547
INTELSAT 20 (IS-20)     
1 38740U 12043A   21156.51428299 -.00000021  00000-0  00000-0 0  9991
2 38740   0.0103 100.9033 0001389  87.7520 319.1347  1.00270525 32324
HYLAS 2                 
1 38741U 12043B   21156.50669347  .00000157  00000-0  00000-0 0  9991
2 38741   0.0182 319.2814 0001857 106.6096  41.7002  1.00268515 32347
INTELSAT 21 (IS-21)     
1 38749U 12045A   21156.48907181 -.00000281  00000-0  00000-0 0  9998
2 38749   0.0244  76.0822 0002171   5.0988 291.0163  1.00272915 32104
ASTRA 2F                
1 38778U 12051A   21156.50625729  .00000153  00000-0  00000-0 0  9992
2 38778   0.0741 244.3688 0000929 281.6137 298.5973  1.00269813 22681
GSAT-10                 
1 38779U 12051B   21156.51724900 -.00000161  00000-0  00000-0 0  9995
2 38779   0.0224  74.3443 0001403  24.0056  65.0401  1.00269209 31698
INTELSAT 23 (IS-23)     
1 38867U 12057A   21156.49011865 -.00000281  00000-0  00000-0 0  9998
2 38867   0.0152 316.6508 0001589 116.0305 304.8939  1.00269755 31511
BEIDOU 16               
1 38953U 12059A   21156.59468291 -.00000171  00000-0  00000-0 0  9994
2 38953   1.9427  84.7179 0008226 296.1759 171.3834  1.00268643 31625
LUCH 5B                 
1 38977U 12061A   21156.06669435 -.00000134  00000-0  00000-0 0  9997
2 38977   6.4880  65.3061 0004288  12.0186 184.0744  1.00271074 31748
YAMAL 300K              
1 38978U 12061B   21156.61119906  .00000074  00000-0  00000-0 0  9994
2 38978   0.0191 287.5571 0000502 326.8823  42.7900  1.00268739 31217
STAR ONE C3             
1 38991U 12062A   21156.48566959 -.00000246  00000-0  00000-0 0  9991
2 38991   0.0570 103.0004 0001791 341.9000 269.0843  1.00272008 31339
EUTELSAT 21B            
1 38992U 12062B   21156.21783441  .00000132  00000-0  00000-0 0  9993
2 38992   0.0663   1.0054 0002813  79.2122 273.6757  1.00269196 31404
ECHOSTAR 16             
1 39008U 12065A   21155.98592406 -.00000280  00000-0  00000-0 0  9992
2 39008   0.0210 324.4547 0001673 113.9511 108.6597  1.00271244 31193
CHINASAT 12 (ZX 12)     
1 39017U 12067A   21156.37460764 -.00000204  00000-0  00000-0 0  9995
2 39017   0.0176   2.5244 0002951  74.6388  39.1901  1.00270718 31087
EUTELSAT 70B            
1 39020U 12069A   21156.51471917 -.00000040  00000-0  00000-0 0  9997
2 39020   0.0551   9.5326 0002577 120.7929  19.6469  1.00270178 31086
YAMAL 402               
1 39022U 12070A   21156.51157867  .00000089  00000-0  00000-0 0  9998
2 39022   0.0324 133.4804 0002781 308.2644  51.4670  1.00271670 30960
SKYNET 5D               
1 39034U 12075A   21156.51122973  .00000102  00000-0  00000-0 0  9992
2 39034   0.0713 351.1074 0003504  89.7648  50.1004  1.00269443 30740
MEXSAT 3                
1 39035U 12075B   21156.60794507 -.00000022  00000-0  00000-0 0  9993
2 39035   0.0134 313.1207 0001611 104.6950 300.5001  1.00271154 30756
TDRS 11                 
1 39070U 13004A   21156.55085265  .00000079  00000-0  00000-0 0  9994
2 39070   3.3470 337.3194 0006537  62.2908 238.4786  1.00270129 28264
